GLOBALSTAR M035         
1 25851U 99037A   24173.42264909 -.00000093  00000+0 -11241-2 0  9996
2 25851  51.9923 139.4965 0013046 116.6899  61.8908 11.04530898 56397
GLOBALSTAR M032         
1 25852U 99037B   24173.82150494  .00000011  00000+0  24949-2 0  9991
2 25852  51.9976 348.6715 0009262 280.2175  79.7580 11.19056219 94441
GLOBALSTAR M051         
1 25853U 99037C   24173.41399255 -.00000049  00000+0  55939-3 0  9993
2 25853  51.9755 191.2071 0001595 284.1070  75.9564 11.42199544 91163
GLOBALSTAR M030         
1 25854U 99037D   24173.92545145 -.00000097  00000+0 -47586-3 0  9994
2 25854  51.9900  18.9874 0004413 117.3081 242.8185 11.55095968108413
GLOBALSTAR M048         
1 25872U 99041A   24173.39881921 -.00000089  00000+0 -52884-3 0  9993
2 25872  51.9360 112.3258 0013567 282.4666 233.9383 11.33846899 84058
GLOBALSTAR M026         
1 25873U 99041B   24173.64874368 -.00000062  00000+0  72259-4 0  9998
2 25873  52.0009 260.7482 0000979  16.3797 130.3257 11.06834355108567
GLOBALSTAR M043         
1 25874U 99041C   24173.51070667 -.00000042  00000+0  79558-3 0  9991
2 25874  51.9365 205.3317 0011956  55.7286 115.0597 11.25679939 82250
GLOBALSTAR M028         
1 25875U 99041D   24173.53194333 -.00000059  00000+0  27018-3 0  9993
2 25875  51.9594 188.4553 0063366   8.2097 351.9787 12.50558290145058
